[{"OBJECT_NAME":"ORBCOMM FM108","OBJECT_ID":"2015-081J","EPOCH":"2026-03-09T21:48:58.312800","MEAN_MOTION":14.58744372,"ECCENTRICITY":0.00021704,"INCLINATION":47.0049,"RA_OF_ASC_NODE":291.5329,"ARG_OF_PERICENTER":99.248,"MEAN_ANOMALY":260.8651,"EPHEMERIS_TYPE":0,"CLASSIFICATION_TYPE":"U","NORAD_CAT_ID":41187,"ELEMENT_SET_NO":999,"REV_AT_EPOCH":54558,"BSTAR":0.0002287344,"MEAN_MOTION_DOT":9.07e-6,"MEAN_MOTION_DDOT":0},{"OBJECT_NAME":"NOAA 16 DEB","OBJECT_ID":"2000-055JR","EPOCH":"2026-03-08T14:09:44.890560","MEAN_MOTION":14.68183,"ECCENTRICITY":0.00432092,"INCLINATION":98.9796,"RA_OF_ASC_NODE":359.2087,"ARG_OF_PERICENTER":273.9022,"MEAN_ANOMALY":85.7241,"EPHEMERIS_TYPE":0,"CLASSIFICATION_TYPE":"U","NORAD_CAT_ID":41372,"ELEMENT_SET_NO":999,"REV_AT_EPOCH":53134,"BSTAR":0.0042981811,"MEAN_MOTION_DOT":0.00025114,"MEAN_MOTION_DDOT":0}]
